GLOBALSTAR M075         
1 37192U 10054E   25095.25327920 -.00000083  00000+0  11479-3 0  9999
2 37192  51.9965  43.6003 0000436  73.7928  69.9580 12.62262893667168
GLOBALSTAR M073         
1 37193U 10054F   25095.54587689 -.00000067  00000+0  20274-3 0  9997
2 37193  52.0071 316.4805 0000809  98.3232 293.8541 12.62269980668716
GLOBALSTAR M083         
1 37739U 11033A   25095.19374756 -.00000046  00000+0  32209-3 0  9999
2 37739  51.9848 266.3803 0000916  95.6259  76.7373 12.62262319637997
GLOBALSTAR M088         
1 37740U 11033B   25095.21498330 -.00000090  00000+0  77187-4 0  9993
2 37740  51.9725 171.8670 0000512 112.9588 276.7447 12.62265006633474
GLOBALSTAR M091         
1 37741U 11033C   25095.57390407 -.00000104  00000+0  13049-5 0  9993
2 37741  51.9977 134.1999 0000554  90.0511  70.6147 12.62266767634270
GLOBALSTAR M085         
1 37742U 11033D   25094.69212392 -.00000107  00000+0 -18210-4 0  9990
2 37742  51.9854  87.9850 0000512  76.0936  95.8315 12.62267013634412
GLOBALSTAR M081         
1 37743U 11033E   25095.50586468 -.00000097  00000+0  37946-4 0  9994
2 37743  51.9945  88.2490 0000492  99.0745  52.4034 12.62262490635049
GLOBALSTAR M089         
1 37744U 11033F   25095.14300610 -.00000085  00000+0  10671-3 0  9990
2 37744  51.9946  43.5946 0000284  94.0525  28.0678 12.62268159635716
